{
  "type": "FeatureCollection",
  "features": [
    {
      "type": "Feature",
      "properties": {
        "norad_id": 34340,
        "name": "COSMOS 2251 DEB",
        "group": "cosmos-2251-debris",
        "lat": 67.51663013327453,
        "lon": 8.425361108250042,
        "alt_km": 751.7730836703704,
        "timestamp": "2025-12-02T15:49:07.588342+00:00",
        "meta_object_name": "COSMOS 2251 DEB",
        "meta_object_id": "1993-036PN",
        "meta_epoch": "2025-12-02T05:07:03.947232",
        "meta_mean_motion": 13.79519914,
        "meta_eccentricity": 0.02817305,
        "meta_inclination": 74.079,
        "meta_ra_of_asc_node": 325.5671,
        "meta_arg_of_pericenter": 75.9793,
        "meta_mean_anomaly": 304.5461,
        "meta_ephemeris_type": 0,
        "meta_classification_type": "U",
        "meta_norad_cat_id": 34340,
        "meta_element_set_no": 999,
        "meta_rev_at_epoch": 84123,
        "meta_bstar": 0.00098669392,
        "meta_mean_motion_dot": 1.348e-05,
        "meta_mean_motion_ddot": 0,
        "tle_line1": "1 34340U 93036PN  25336.21324013  .00001348  00000+0  98669-3 0  9996",
        "tle_line2": "2 34340  74.0790 325.5671 0281730  75.9793 304.5461 13.79519914841233"
      },
      "geometry": {
        "type": "Point",
        "coordinates": [
          8.425361108250042,
          67.51663013327453
        ]
      }
    },
    {
      "type": "Feature",
      "properties": {
        "norad_id": 34343,
        "name": "COSMOS 2251 DEB",
        "group": "cosmos-2251-debris",
        "lat": 44.53344908881044,
        "lon": -87.28067392348099,
        "alt_km": 663.8110054758554,
        "timestamp": "2025-12-02T15:49:07.588353+00:00",
        "meta_object_name": "COSMOS 2251 DEB",
        "meta_object_id": "1993-036PR",
        "meta_epoch": "2025-12-02T02:56:07.825920",
        "meta_mean_motion": 14.6912141,
        "meta_eccentricity": 0.00224013,
        "meta_inclination": 74.0188,
        "meta_ra_of_asc_node": 110.136,
        "meta_arg_of_pericenter": 29.0413,
        "meta_mean_anomaly": 145.889,
        "meta_ephemeris_type": 0,
        "meta_classification_type": "U",
        "meta_norad_cat_id": 34343,
        "meta_element_set_no": 999,
        "meta_rev_at_epoch": 88574,
        "meta_bstar": 0.0018724164,
        "meta_mean_motion_dot": 0.00011036,
        "meta_mean_motion_ddot": 0,
        "tle_line1": "1 34343U 93036PR  25336.12231280  .00011036  00000+0  18724-2 0  9990",
        "tle_line2": "2 34343  74.0188 110.1360 0022401  29.0413 145.8890 14.69121410885743"
      },
      "geometry": {
        "type": "Point",
        "coordinates": [
          -87.28067392348099,
          44.53344908881044
        ]
      }
    },
    {
      "type": "Feature",
      "properties": {
        "norad_id": 34344,
        "name": "COSMOS 2251 DEB",
        "group": "cosmos-2251-debris",
        "lat": -5.4218590897889944,
        "lon": 126.77724698028757,
        "alt_km": 754.5313000689948,
        "timestamp": "2025-12-02T15:49:07.588363+00:00",
        "meta_object_name": "COSMOS 2251 DEB",
        "meta_object_id": "1993-036PS",
        "meta_epoch": "2025-12-01T20:06:03.023136",
        "meta_mean_motion": 14.16291741,
        "meta_eccentricity": 0.01550431,
        "meta_inclination": 73.9767,
        "meta_ra_of_asc_node": 129.806,
        "meta_arg_of_pericenter": 316.2935,
        "meta_mean_anomaly": 169.7387,
        "meta_ephemeris_type": 0,
        "meta_classification_type": "U",
        "meta_norad_cat_id": 34344,
        "meta_element_set_no": 999,
        "meta_rev_at_epoch": 85942,
        "meta_bstar": 0.001570877,
        "meta_mean_motion_dot": 3.477e-05,
        "meta_mean_motion_ddot": 0,
        "tle_line1": "1 34344U 93036PS  25335.83753499  .00003477  00000+0  15709-2 0  9999",
        "tle_line2": "2 34344  73.9767 129.8060 0155043 316.2935 169.7387 14.16291741859427"
      },
      "geometry": {
        "type": "Point",
        "coordinates": [
          126.77724698028757,
          -5.4218590897889944
        ]
      }
    },
    {
      "type": "Feature",
      "properties": {
        "norad_id": 34346,
        "name": "COSMOS 2251 DEB",
        "group": "cosmos-2251-debris",
        "lat": -9.849231189367663,
        "lon": -33.117548488261676,
        "alt_km": 1040.9101192636526,
        "timestamp": "2025-12-02T15:49:07.588374+00:00",
        "meta_object_name": "COSMOS 2251 DEB",
        "meta_object_id": "1993-036PU",
        "meta_epoch": "2025-12-02T00:42:28.931328",
        "meta_mean_motion": 13.99642901,
        "meta_eccentricity": 0.02068897,
        "meta_inclination": 73.9946,
        "meta_ra_of_asc_node": 330.8308,
        "meta_arg_of_pericenter": 152.2795,
        "meta_mean_anomaly": 267.14,
        "meta_ephemeris_type": 0,
        "meta_classification_type": "U",
        "meta_norad_cat_id": 34346,
        "meta_element_set_no": 999,
        "meta_rev_at_epoch": 85260,
        "meta_bstar": 0.00094878516,
        "meta_mean_motion_dot": 1.645e-05,
        "meta_mean_motion_ddot": 0,
        "tle_line1": "1 34346U 93036PU  25336.02950152  .00001645  00000+0  94879-3 0  9999",
        "tle_line2": "2 34346  73.9946 330.8308 0206889 152.2795 267.1400 13.99642901852604"
      },
      "geometry": {
        "type": "Point",
        "coordinates": [
          -33.117548488261676,
          -9.849231189367663
        ]
      }
    },
    {
      "type": "Feature",
      "properties": {
        "norad_id": 34383,
        "name": "COSMOS 2251 DEB",
        "group": "cosmos-2251-debris",
        "lat": -30.05854596614949,
        "lon": 148.01863226968172,
        "alt_km": 552.0328522687005,
        "timestamp": "2025-12-02T15:49:07.588384+00:00",
        "meta_object_name": "COSMOS 2251 DEB",
        "meta_object_id": "1993-036PY",
        "meta_epoch": "2025-12-02T00:50:02.508864",
        "meta_mean_motion": 15.07369266,
        "meta_eccentricity": 0.00033939,
        "meta_inclination": 74.0211,
        "meta_ra_of_asc_node": 319.7575,
        "meta_arg_of_pericenter": 35.6875,
        "meta_mean_anomaly": 28.8493,
        "meta_ephemeris_type": 0,
        "meta_classification_type": "U",
        "meta_norad_cat_id": 34383,
        "meta_element_set_no": 999,
        "meta_rev_at_epoch": 88952,
        "meta_bstar": 0.0036262155,
        "meta_mean_motion_dot": 0.00055257,
        "meta_mean_motion_ddot": 0,
        "tle_line1": "1 34383U 93036PY  25336.03475126  .00055257  00000+0  36262-2 0  9993",
        "tle_line2": "2 34383  74.0211 319.7575 0003393  35.6875  28.8493 15.07369266889528"
      },
      "geometry": {
        "type": "Point",
        "coordinates": [
          148.01863226968172,
          -30.05854596614949
        ]
      }
    },
    {
      "type": "Feature",
      "properties": {
        "norad_id": 34387,
        "name": "COSMOS 2251 DEB",
        "group": "cosmos-2251-debris",
        "lat": -34.08956547815946,
        "lon": -140.53551728224403,
        "alt_km": 724.5751584829859,
        "timestamp": "2025-12-02T15:49:07.588463+00:00",
        "meta_object_name": "COSMOS 2251 DEB",
        "meta_object_id": "1993-036QC",
        "meta_epoch": "2025-12-01T04:05:42.963360",
        "meta_mean_motion": 14.43779457,
        "meta_eccentricity": 0.00384604,
        "meta_inclination": 74.0405,
        "meta_ra_of_asc_node": 233.3971,
        "meta_arg_of_pericenter": 332.6263,
        "meta_mean_anomaly": 178.4473,
        "meta_ephemeris_type": 0,
        "meta_classification_type": "U",
        "meta_norad_cat_id": 34387,
        "meta_element_set_no": 999,
        "meta_rev_at_epoch": 88014,
        "meta_bstar": 0.00032827105,
        "meta_mean_motion_dot": 1.1e-05,
        "meta_mean_motion_ddot": 0,
        "tle_line1": "1 34387U 93036QC  25335.17063615  .00001100  00000+0  32827-3 0  9999",
        "tle_line2": "2 34387  74.0405 233.3971 0038460 332.6263 178.4473 14.43779457880147"
      },
      "geometry": {
        "type": "Point",
        "coordinates": [
          -140.53551728224403,
          -34.08956547815946
        ]
      }
    },
    {
      "type": "Feature",
      "properties": {
        "norad_id": 34388,
        "name": "COSMOS 2251 DEB",
        "group": "cosmos-2251-debris",
        "lat": 66.87264048607092,
        "lon": 19.937711587317107,
        "alt_km": 731.3441921691083,
        "timestamp": "2025-12-02T15:49:07.588477+00:00",
        "meta_object_name": "COSMOS 2251 DEB",
        "meta_object_id": "1993-036QD",
        "meta_epoch": "2025-12-01T21:27:40.544928",
        "meta_mean_motion": 14.49267799,
        "meta_eccentricity": 0.0014363,
        "meta_inclination": 74.0397,
        "meta_ra_of_asc_node": 243.4431,
        "meta_arg_of_pericenter": 292.0573,
        "meta_mean_anomaly": 145.7289,
        "meta_ephemeris_type": 0,
        "meta_classification_type": "U",
        "meta_norad_cat_id": 34388,
        "meta_element_set_no": 999,
        "meta_rev_at_epoch": 87998,
        "meta_bstar": 0.00087731162,
        "meta_mean_motion_dot": 3.324e-05,
        "meta_mean_motion_ddot": 0,
        "tle_line1": "1 34388U 93036QD  25335.89421927  .00003324  00000+0  87731-3 0  9997",
        "tle_line2": "2 34388  74.0397 243.4431 0014363 292.0573 145.7289 14.49267799879989"
      },
      "geometry": {
        "type": "Point",
        "coordinates": [
          19.937711587317107,
          66.87264048607092
        ]
      }
    }
  ]
}